0 FENGYUN 1C DEB
1 30999U 99025BCR 13282.21533603  .00001942  00000-0  55147-3 0   266
2 30999 099.1003 080.1685 0147475 258.8067 099.6511 14.40570497345538
0 FENGYUN 1C DEB
1 30999U 99025BCR 13283.39609999  .00001848  00000-0  52555-3 0   274
2 30999 099.1003 081.4246 0147507 255.3147 103.1650 14.40574425345701
0 FENGYUN 1C DEB
1 30999U 99025BCR 13285.68816271  .00002028  00000-0  57501-3 0   290
2 30999 099.1005 083.8627 0147565 248.5411 109.9984 14.40581653346036
0 FENGYUN 1C DEB
1 30999U 99025BCR 13287.21619843  .00002415  00000-0  68144-3 0   304
2 30999 099.1008 085.4882 0147597 244.0263 114.5656 14.40588259346252
0 FENGYUN 1C DEB
1 30999U 99025BCR 13288.39694926  .00003332  00000-0  93390-3 0   310
2 30999 099.1010 086.7443 0147609 240.5416 118.0974 14.40596585346429
0 FENGYUN 1C DEB
1 30999U 99025BCR 13289.64714945  .00003475  00000-0  97306-3 0   323
2 30999 099.1003 088.0733 0147566 236.8706 121.8247 14.40602404346603
0 FENGYUN 1C DEB
1 30999U 99025BCR 13290.68897969  .00003531  00000-0  98823-3 0   336
2 30999 099.1006 089.1817 0147586 233.7943 124.9522 14.40609617346751
0 FENGYUN 1C DEB
1 30999U 99025BCR 13292.21698885  .00003609  00000-0  10096-2 0   345
2 30999 099.1010 090.8073 0147616 229.2825 129.5464 14.40618140346973
0 FENGYUN 1C DEB
1 30999U 99025BCR 13293.25880834  .00004133  00000-0  11535-2 0   350
2 30999 099.1013 091.9158 0147640 226.2086 132.6811 14.40624878347129
0 FENGYUN 1C DEB
1 30999U 99025BCR 13295.27298012  .00004835  00000-0  13462-2 0   366
2 30999 099.1015 094.0587 0147677 220.2631 138.7545 14.40638994347418
